{
  "type": "FeatureCollection",
  "features": [
    {
      "type": "Feature",
      "properties": {
        "norad_id": 34846,
        "name": "COSMOS 2251 DEB",
        "group": "cosmos-2251-debris",
        "lat": 48.02765907913699,
        "lon": 66.50175249428612,
        "alt_km": 747.314476722132,
        "timestamp": "2025-12-10T23:33:13.213259+00:00",
        "meta_object_name": "COSMOS 2251 DEB",
        "meta_object_id": "1993-036ABQ",
        "meta_epoch": "2025-12-09T22:04:20.854848",
        "meta_mean_motion": 14.47185616,
        "meta_eccentricity": 0.00260534,
        "meta_inclination": 74.0307,
        "meta_ra_of_asc_node": 267.0486,
        "meta_arg_of_pericenter": 333.8398,
        "meta_mean_anomaly": 26.1442,
        "meta_ephemeris_type": 0,
        "meta_classification_type": "U",
        "meta_norad_cat_id": 34846,
        "meta_element_set_no": 999,
        "meta_rev_at_epoch": 87363,
        "meta_bstar": 0.0013251291,
        "meta_mean_motion_dot": 4.835e-05,
        "meta_mean_motion_ddot": 0,
        "tle_line1": "1 34846U 93036ABQ 25343.91968582  .00004835  00000+0  13251-2 0  9994",
        "tle_line2": "2 34846  74.0307 267.0486 0026053 333.8398  26.1442 14.47185616873633"
      },
      "geometry": {
        "type": "Point",
        "coordinates": [
          66.50175249428612,
          48.02765907913699
        ]
      }
    },
    {
      "type": "Feature",
      "properties": {
        "norad_id": 34852,
        "name": "COSMOS 2251 DEB",
        "group": "cosmos-2251-debris",
        "lat": -71.01963122420199,
        "lon": 142.55518945266454,
        "alt_km": 779.2719455581582,
        "timestamp": "2025-12-10T23:33:13.213268+00:00",
        "meta_object_name": "COSMOS 2251 DEB",
        "meta_object_id": "1993-036ABW",
        "meta_epoch": "2025-12-09T12:55:56.817120",
        "meta_mean_motion": 14.37001055,
        "meta_eccentricity": 0.0016022,
        "meta_inclination": 74.0329,
        "meta_ra_of_asc_node": 268.8581,
        "meta_arg_of_pericenter": 12.6756,
        "meta_mean_anomaly": 347.4797,
        "meta_ephemeris_type": 0,
        "meta_classification_type": "U",
        "meta_norad_cat_id": 34852,
        "meta_element_set_no": 999,
        "meta_rev_at_epoch": 87488,
        "meta_bstar": 0.00021796,
        "meta_mean_motion_dot": 6.21e-06,
        "meta_mean_motion_ddot": 0,
        "tle_line1": "1 34852U 93036ABW 25343.53885205  .00000621  00000+0  21796-3 0  9992",
        "tle_line2": "2 34852  74.0329 268.8581 0016022  12.6756 347.4797 14.37001055874887"
      },
      "geometry": {
        "type": "Point",
        "coordinates": [
          142.55518945266454,
          -71.01963122420199
        ]
      }
    },
    {
      "type": "Feature",
      "properties": {
        "norad_id": 34854,
        "name": "COSMOS 2251 DEB",
        "group": "cosmos-2251-debris",
        "lat": -73.76417584868695,
        "lon": 82.45745124956979,
        "alt_km": 600.610901167769,
        "timestamp": "2025-12-10T23:33:13.213277+00:00",
        "meta_object_name": "COSMOS 2251 DEB",
        "meta_object_id": "1993-036ABY",
        "meta_epoch": "2025-12-10T04:25:53.682240",
        "meta_mean_motion": 14.76585117,
        "meta_eccentricity": 0.0066172,
        "meta_inclination": 74.0287,
        "meta_ra_of_asc_node": 163.5908,
        "meta_arg_of_pericenter": 275.7691,
        "meta_mean_anomaly": 83.5942,
        "meta_ephemeris_type": 0,
        "meta_classification_type": "U",
        "meta_norad_cat_id": 34854,
        "meta_element_set_no": 999,
        "meta_rev_at_epoch": 71844,
        "meta_bstar": 0.00096088,
        "meta_mean_motion_dot": 6.925e-05,
        "meta_mean_motion_ddot": 0,
        "tle_line1": "1 34854U 93036ABY 25344.18464910  .00006925  00000+0  96088-3 0  9991",
        "tle_line2": "2 34854  74.0287 163.5908 0066172 275.7691  83.5942 14.76585117718445"
      },
      "geometry": {
        "type": "Point",
        "coordinates": [
          82.45745124956979,
          -73.76417584868695
        ]
      }
    },
    {
      "type": "Feature",
      "properties": {
        "norad_id": 34856,
        "name": "COSMOS 2251 DEB",
        "group": "cosmos-2251-debris",
        "lat": 18.611488582967823,
        "lon": -97.07978587355848,
        "alt_km": 539.1102127678605,
        "timestamp": "2025-12-10T23:33:13.213286+00:00",
        "meta_object_name": "COSMOS 2251 DEB",
        "meta_object_id": "1993-036ACA",
        "meta_epoch": "2025-12-10T13:20:08.985120",
        "meta_mean_motion": 15.05866818,
        "meta_eccentricity": 0.00330733,
        "meta_inclination": 73.9963,
        "meta_ra_of_asc_node": 89.3417,
        "meta_arg_of_pericenter": 226.8669,
        "meta_mean_anomaly": 146.927,
        "meta_ephemeris_type": 0,
        "meta_classification_type": "U",
        "meta_norad_cat_id": 34856,
        "meta_element_set_no": 999,
        "meta_rev_at_epoch": 89079,
        "meta_bstar": 0.0030572712,
        "meta_mean_motion_dot": 0.00045205,
        "meta_mean_motion_ddot": 0,
        "tle_line1": "1 34856U 93036ACA 25344.55565955  .00045205  00000+0  30573-2 0  9995",
        "tle_line2": "2 34856  73.9963  89.3417 0033073 226.8669 146.9270 15.05866818890792"
      },
      "geometry": {
        "type": "Point",
        "coordinates": [
          -97.07978587355848,
          18.611488582967823
        ]
      }
    },
    {
      "type": "Feature",
      "properties": {
        "norad_id": 34857,
        "name": "COSMOS 2251 DEB",
        "group": "cosmos-2251-debris",
        "lat": 66.03341327856093,
        "lon": -109.96949255963528,
        "alt_km": 717.8291546978044,
        "timestamp": "2025-12-10T23:33:13.213296+00:00",
        "meta_object_name": "COSMOS 2251 DEB",
        "meta_object_id": "1993-036ACB",
        "meta_epoch": "2025-12-10T10:09:42.100416",
        "meta_mean_motion": 14.5885085,
        "meta_eccentricity": 0.00659222,
        "meta_inclination": 74.0153,
        "meta_ra_of_asc_node": 111.2471,
        "meta_arg_of_pericenter": 236.0948,
        "meta_mean_anomaly": 183.224,
        "meta_ephemeris_type": 0,
        "meta_classification_type": "U",
        "meta_norad_cat_id": 34857,
        "meta_element_set_no": 999,
        "meta_rev_at_epoch": 87867,
        "meta_bstar": 0.001891387,
        "meta_mean_motion_dot": 9.104e-05,
        "meta_mean_motion_ddot": 0,
        "tle_line1": "1 34857U 93036ACB 25344.42340394  .00009104  00000+0  18914-2 0  9993",
        "tle_line2": "2 34857  74.0153 111.2471 0065922 236.0948 183.2240 14.58850850878672"
      },
      "geometry": {
        "type": "Point",
        "coordinates": [
          -109.96949255963528,
          66.03341327856093
        ]
      }
    },
    {
      "type": "Feature",
      "properties": {
        "norad_id": 34859,
        "name": "COSMOS 2251 DEB",
        "group": "cosmos-2251-debris",
        "lat": 63.850777645792306,
        "lon": 18.999089561446265,
        "alt_km": 516.9625560649047,
        "timestamp": "2025-12-10T23:33:13.213305+00:00",
        "meta_object_name": "COSMOS 2251 DEB",
        "meta_object_id": "1993-036ACD",
        "meta_epoch": "2025-12-10T11:07:51.238272",
        "meta_mean_motion": 15.14113317,
        "meta_eccentricity": 0.00026179,
        "meta_inclination": 74.0303,
        "meta_ra_of_asc_node": 344.3921,
        "meta_arg_of_pericenter": 331.4032,
        "meta_mean_anomaly": 157.2972,
        "meta_ephemeris_type": 0,
        "meta_classification_type": "U",
        "meta_norad_cat_id": 34859,
        "meta_element_set_no": 999,
        "meta_rev_at_epoch": 88324,
        "meta_bstar": 0.0072409322,
        "meta_mean_motion_dot": 0.00134384,
        "meta_mean_motion_ddot": 0,
        "tle_line1": "1 34859U 93036ACD 25344.46378748  .00134384  00000+0  72409-2 0  9991",
        "tle_line2": "2 34859  74.0303 344.3921 0002617 331.4032 157.2972 15.14113317883241"
      },
      "geometry": {
        "type": "Point",
        "coordinates": [
          18.999089561446265,
          63.850777645792306
        ]
      }
    },
    {
      "type": "Feature",
      "properties": {
        "norad_id": 34861,
        "name": "COSMOS 2251 DEB",
        "group": "cosmos-2251-debris",
        "lat": 48.99629076111647,
        "lon": 73.69001412258199,
        "alt_km": 550.0991824457597,
        "timestamp": "2025-12-10T23:33:13.213314+00:00",
        "meta_object_name": "COSMOS 2251 DEB",
        "meta_object_id": "1993-036ACF",
        "meta_epoch": "2025-12-10T05:59:36.099168",
        "meta_mean_motion": 15.02321054,
        "meta_eccentricity": 0.0006722,
        "meta_inclination": 74.0188,
        "meta_ra_of_asc_node": 55.9366,
        "meta_arg_of_pericenter": 54.9215,
        "meta_mean_anomaly": 1.2852,
        "meta_ephemeris_type": 0,
        "meta_classification_type": "U",
        "meta_norad_cat_id": 34861,
        "meta_element_set_no": 999,
        "meta_rev_at_epoch": 88055,
        "meta_bstar": 0.003625,
        "meta_mean_motion_dot": 0.00048237,
        "meta_mean_motion_ddot": 0,
        "tle_line1": "1 34861U 93036ACF 25344.24972337  .00048237  00000+0  36250-2 0  9999",
        "tle_line2": "2 34861  74.0188  55.9366 0006722  54.9215   1.2852 15.02321054880556"
      },
      "geometry": {
        "type": "Point",
        "coordinates": [
          73.69001412258199,
          48.99629076111647
        ]
      }
    }
  ]
}